{
  "type": "FeatureCollection",
  "features": [
    {
      "type": "Feature",
      "properties": {
        "norad_id": 34340,
        "name": "COSMOS 2251 DEB",
        "group": "cosmos-2251-debris",
        "lat": -55.34323879353272,
        "lon": 162.61368727003358,
        "alt_km": 1176.7265518278464,
        "timestamp": "2025-12-06T14:35:37.520145+00:00",
        "meta_object_name": "COSMOS 2251 DEB",
        "meta_object_id": "1993-036PN",
        "meta_epoch": "2025-12-06T04:49:47.714880",
        "meta_mean_motion": 13.79537048,
        "meta_eccentricity": 0.02819672,
        "meta_inclination": 74.0789,
        "meta_ra_of_asc_node": 318.907,
        "meta_arg_of_pericenter": 68.3111,
        "meta_mean_anomaly": 310.2656,
        "meta_ephemeris_type": 0,
        "meta_classification_type": "U",
        "meta_norad_cat_id": 34340,
        "meta_element_set_no": 999,
        "meta_rev_at_epoch": 84178,
        "meta_bstar": 0.0015766341,
        "meta_mean_motion_dot": 2.168e-05,
        "meta_mean_motion_ddot": 0,
        "tle_line1": "1 34340U 93036PN  25340.20124670  .00002168  00000+0  15766-2 0  9994",
        "tle_line2": "2 34340  74.0789 318.9070 0281967  68.3111 310.2656 13.79537048841780"
      },
      "geometry": {
        "type": "Point",
        "coordinates": [
          162.61368727003358,
          -55.34323879353272
        ]
      }
    },
    {
      "type": "Feature",
      "properties": {
        "norad_id": 34343,
        "name": "COSMOS 2251 DEB",
        "group": "cosmos-2251-debris",
        "lat": 46.45395493322079,
        "lon": -96.10417921221618,
        "alt_km": 665.1095408914107,
        "timestamp": "2025-12-06T14:35:37.520156+00:00",
        "meta_object_name": "COSMOS 2251 DEB",
        "meta_object_id": "1993-036PR",
        "meta_epoch": "2025-12-06T07:34:01.728192",
        "meta_mean_motion": 14.69264655,
        "meta_eccentricity": 0.00228061,
        "meta_inclination": 74.0203,
        "meta_ra_of_asc_node": 102.0095,
        "meta_arg_of_pericenter": 19.0528,
        "meta_mean_anomaly": 3.7412,
        "meta_ephemeris_type": 0,
        "meta_classification_type": "U",
        "meta_norad_cat_id": 34343,
        "meta_element_set_no": 999,
        "meta_rev_at_epoch": 88636,
        "meta_bstar": 0.0029070817,
        "meta_mean_motion_dot": 0.00017227,
        "meta_mean_motion_ddot": 0,
        "tle_line1": "1 34343U 93036PR  25340.31529778  .00017227  00000+0  29071-2 0  9993",
        "tle_line2": "2 34343  74.0203 102.0095 0022806  19.0528   3.7412 14.69264655886361"
      },
      "geometry": {
        "type": "Point",
        "coordinates": [
          -96.10417921221618,
          46.45395493322079
        ]
      }
    },
    {
      "type": "Feature",
      "properties": {
        "norad_id": 34344,
        "name": "COSMOS 2251 DEB",
        "group": "cosmos-2251-debris",
        "lat": -37.6572236886051,
        "lon": 108.48245825435819,
        "alt_km": 734.8760000255643,
        "timestamp": "2025-12-06T14:35:37.520166+00:00",
        "meta_object_name": "COSMOS 2251 DEB",
        "meta_object_id": "1993-036PS",
        "meta_epoch": "2025-12-05T11:56:44.170944",
        "meta_mean_motion": 14.16331086,
        "meta_eccentricity": 0.01553422,
        "meta_inclination": 73.9776,
        "meta_ra_of_asc_node": 123.2752,
        "meta_arg_of_pericenter": 308.8907,
        "meta_mean_anomaly": 112.1202,
        "meta_ephemeris_type": 0,
        "meta_classification_type": "U",
        "meta_norad_cat_id": 34344,
        "meta_element_set_no": 999,
        "meta_rev_at_epoch": 85994,
        "meta_bstar": 0.0025753986,
        "meta_mean_motion_dot": 5.727e-05,
        "meta_mean_motion_ddot": 0,
        "tle_line1": "1 34344U 93036PS  25339.49773346  .00005727  00000+0  25754-2 0  9999",
        "tle_line2": "2 34344  73.9776 123.2752 0155342 308.8907 112.1202 14.16331086859943"
      },
      "geometry": {
        "type": "Point",
        "coordinates": [
          108.48245825435819,
          -37.6572236886051
        ]
      }
    },
    {
      "type": "Feature",
      "properties": {
        "norad_id": 34346,
        "name": "COSMOS 2251 DEB",
        "group": "cosmos-2251-debris",
        "lat": 70.44378785020673,
        "lon": 16.786763469668834,
        "alt_km": 820.9193649537929,
        "timestamp": "2025-12-06T14:35:37.520177+00:00",
        "meta_object_name": "COSMOS 2251 DEB",
        "meta_object_id": "1993-036PU",
        "meta_epoch": "2025-12-06T00:46:19.633152",
        "meta_mean_motion": 13.9966275,
        "meta_eccentricity": 0.02065494,
        "meta_inclination": 73.995,
        "meta_ra_of_asc_node": 323.8849,
        "meta_arg_of_pericenter": 144.4097,
        "meta_mean_anomaly": 275.6391,
        "meta_ephemeris_type": 0,
        "meta_classification_type": "U",
        "meta_norad_cat_id": 34346,
        "meta_element_set_no": 999,
        "meta_rev_at_epoch": 85316,
        "meta_bstar": 0.0013865312,
        "meta_mean_motion_dot": 2.414e-05,
        "meta_mean_motion_ddot": 0,
        "tle_line1": "1 34346U 93036PU  25340.03217168  .00002414  00000+0  13865-2 0  9998",
        "tle_line2": "2 34346  73.9950 323.8849 0206549 144.4097 275.6391 13.99662750853161"
      },
      "geometry": {
        "type": "Point",
        "coordinates": [
          16.786763469668834,
          70.44378785020673
        ]
      }
    },
    {
      "type": "Feature",
      "properties": {
        "norad_id": 34383,
        "name": "COSMOS 2251 DEB",
        "group": "cosmos-2251-debris",
        "lat": 35.464736438716685,
        "lon": -37.88223801278881,
        "alt_km": 537.2853983349651,
        "timestamp": "2025-12-06T14:35:37.520187+00:00",
        "meta_object_name": "COSMOS 2251 DEB",
        "meta_object_id": "1993-036PY",
        "meta_epoch": "2025-12-06T04:57:58.714848",
        "meta_mean_motion": 15.08063913,
        "meta_eccentricity": 0.00027649,
        "meta_inclination": 74.0217,
        "meta_ra_of_asc_node": 311.1659,
        "meta_arg_of_pericenter": 34.1472,
        "meta_mean_anomaly": 346.1286,
        "meta_ephemeris_type": 0,
        "meta_classification_type": "U",
        "meta_norad_cat_id": 34383,
        "meta_element_set_no": 999,
        "meta_rev_at_epoch": 89015,
        "meta_bstar": 0.005470039,
        "meta_mean_motion_dot": 0.00085318,
        "meta_mean_motion_ddot": 0,
        "tle_line1": "1 34383U 93036PY  25340.20692957  .00085318  00000+0  54700-2 0  9998",
        "tle_line2": "2 34383  74.0217 311.1659 0002764  34.1472 346.1286 15.08063913890159"
      },
      "geometry": {
        "type": "Point",
        "coordinates": [
          -37.88223801278881,
          35.464736438716685
        ]
      }
    },
    {
      "type": "Feature",
      "properties": {
        "norad_id": 34387,
        "name": "COSMOS 2251 DEB",
        "group": "cosmos-2251-debris",
        "lat": -36.86298358102056,
        "lon": -149.0998242609088,
        "alt_km": 724.4597500201107,
        "timestamp": "2025-12-06T14:35:37.520260+00:00",
        "meta_object_name": "COSMOS 2251 DEB",
        "meta_object_id": "1993-036QC",
        "meta_epoch": "2025-12-06T03:51:16.970112",
        "meta_mean_motion": 14.43798291,
        "meta_eccentricity": 0.00386113,
        "meta_inclination": 74.0398,
        "meta_ra_of_asc_node": 224.1225,
        "meta_arg_of_pericenter": 322.1435,
        "meta_mean_anomaly": 194.5323,
        "meta_ephemeris_type": 0,
        "meta_classification_type": "U",
        "meta_norad_cat_id": 34387,
        "meta_element_set_no": 999,
        "meta_rev_at_epoch": 88086,
        "meta_bstar": 0.00051953479,
        "meta_mean_motion_dot": 1.758e-05,
        "meta_mean_motion_ddot": 0,
        "tle_line1": "1 34387U 93036QC  25340.16061308  .00001758  00000+0  51953-3 0  9991",
        "tle_line2": "2 34387  74.0398 224.1225 0038611 322.1435 194.5323 14.43798291880860"
      },
      "geometry": {
        "type": "Point",
        "coordinates": [
          -149.0998242609088,
          -36.86298358102056
        ]
      }
    },
    {
      "type": "Feature",
      "properties": {
        "norad_id": 34388,
        "name": "COSMOS 2251 DEB",
        "group": "cosmos-2251-debris",
        "lat": -1.9509464025263716,
        "lon": 55.162740293343624,
        "alt_km": 732.6938216740618,
        "timestamp": "2025-12-06T14:35:37.520273+00:00",
        "meta_object_name": "COSMOS 2251 DEB",
        "meta_object_id": "1993-036QD",
        "meta_epoch": "2025-12-06T04:32:07.680192",
        "meta_mean_motion": 14.49312946,
        "meta_eccentricity": 0.00142566,
        "meta_inclination": 74.0397,
        "meta_ra_of_asc_node": 235.3898,
        "meta_arg_of_pericenter": 283.8942,
        "meta_mean_anomaly": 232.4253,
        "meta_ephemeris_type": 0,
        "meta_classification_type": "U",
        "meta_norad_cat_id": 34388,
        "meta_element_set_no": 999,
        "meta_rev_at_epoch": 88060,
        "meta_bstar": 0.0012748691,
        "meta_mean_motion_dot": 4.849e-05,
        "meta_mean_motion_ddot": 0,
        "tle_line1": "1 34388U 93036QD  25340.18897778  .00004849  00000+0  12749-2 0  9995",
        "tle_line2": "2 34388  74.0397 235.3898 0014256 283.8942 232.4253 14.49312946880606"
      },
      "geometry": {
        "type": "Point",
        "coordinates": [
          55.162740293343624,
          -1.9509464025263716
        ]
      }
    }
  ]
}